[
    {
        "Altitude(m)": 711093.1812053879,
        "Argument of Periapsis(deg)": 0.009112096949301655,
        "Eccentricity": 0.0,
        "Inclination(deg)": 45.0,
        "Latitude(deg)": -28.390750973914347,
        "Longitude(deg)": 136.90671321508137,
        "Mean Anomaly(deg)": 221.95387331798466,
        "RAAN(deg)": 24.99139844683344,
        "Satellite Name": "Constellation 1 123",
        "Satellite Number": 123,
        "Semi-Major Axis(m)": 7083131.272910544,
        "Time(s)": 152
    },
    {
        "Altitude(m)": 711106.9882304624,
        "Argument of Periapsis(deg)": 0.009172044955547059,
        "Eccentricity": 0.0,
        "Inclination(deg)": 45.0,
        "Latitude(deg)": -28.427040156479663,
        "Longitude(deg)": 136.95782579680622,
        "Mean Anomaly(deg)": 222.01457445823453,
        "RAAN(deg)": 24.991341857667866,
        "Satellite Name": "Constellation 1 123",
        "Satellite Number": 123,
        "Semi-Major Axis(m)": 7083131.272910544,
        "Time(s)": 153
    },
    {
        "Altitude(m)": 711120.7932865712,
        "Argument of Periapsis(deg)": 0.009231992961792466,
        "Eccentricity": 0.0,
        "Inclination(deg)": 45.0,
        "Latitude(deg)": -28.463306658329078,
        "Longitude(deg)": 137.0089758997,
        "Mean Anomaly(deg)": 222.0752755984845,
        "RAAN(deg)": 24.9912852685023,
        "Satellite Name": "Constellation 1 123",
        "Satellite Number": 123,
        "Semi-Major Axis(m)": 7083131.272910544,
        "Time(s)": 154
    },
    {
        "Altitude(m)": 711134.596325694,
        "Argument of Periapsis(deg)": 0.009291940968037872,
        "Eccentricity": 0.0,
        "Inclination(deg)": 45.0,
        "Latitude(deg)": -28.499550430717758,
        "Longitude(deg)": 137.06016358283426,
        "Mean Anomaly(deg)": 222.1359767387344,
        "RAAN(deg)": 24.99122867933673,
        "Satellite Name": "Constellation 1 123",
        "Satellite Number": 123,
        "Semi-Major Axis(m)": 7083131.272910544,
        "Time(s)": 155
    },
    {
        "Altitude(m)": 711148.3972998117,
        "Argument of Periapsis(deg)": 0.009351888974283276,
        "Eccentricity": 0.0,
        "Inclination(deg)": 45.0,
        "Latitude(deg)": -28.53577142483116,
        "Longitude(deg)": 137.1113887371515,
        "Mean Anomaly(deg)": 222.1966778789842,
        "RAAN(deg)": 24.991172090171162,
        "Satellite Name": "Constellation 1 123",
        "Satellite Number": 123,
        "Semi-Major Axis(m)": 7083131.272910544,
        "Time(s)": 156
    },
    {
        "Altitude(m)": 711162.1961608949,
        "Argument of Periapsis(deg)": 0.00941183698052868,
        "Eccentricity": 0.0,
        "Inclination(deg)": 45.0,
        "Latitude(deg)": -28.571969591786,
        "Longitude(deg)": 137.16265175785222,
        "Mean Anomaly(deg)": 222.2573790192342,
        "RAAN(deg)": 24.99111550100559,
        "Satellite Name": "Constellation 1 123",
        "Satellite Number": 123,
        "Semi-Major Axis(m)": 7083131.272910544,
        "Time(s)": 157
    },
    {
        "Altitude(m)": 711175.9928609184,
        "Argument of Periapsis(deg)": 0.009471784986774088,
        "Eccentricity": 0.0,
        "Inclination(deg)": 45.0,
        "Latitude(deg)": -28.608144882627865,
        "Longitude(deg)": 137.2139525358119,
        "Mean Anomaly(deg)": 222.31808015948405,
        "RAAN(deg)": 24.991058911840017,
        "Satellite Name": "Constellation 1 123",
        "Satellite Number": 123,
        "Semi-Major Axis(m)": 7083131.272910544,
        "Time(s)": 158
    },
    {
        "Altitude(m)": 711189.787351845,
        "Argument of Periapsis(deg)": 0.009531732993019492,
        "Eccentricity": 0.0,
        "Inclination(deg)": 45.0,
        "Latitude(deg)": -28.64429724833356,
        "Longitude(deg)": 137.26529112997002,
        "Mean Anomaly(deg)": 222.37878129973396,
        "RAAN(deg)": 24.99100232267445,
        "Satellite Name": "Constellation 1 123",
        "Satellite Number": 123,
        "Semi-Major Axis(m)": 7083131.272910544,
        "Time(s)": 159
    },
    {
        "Altitude(m)": 711203.5795856414,
        "Argument of Periapsis(deg)": 0.009591680999264898,
        "Eccentricity": 0.0,
        "Inclination(deg)": 45.0,
        "Latitude(deg)": -28.68042663980944,
        "Longitude(deg)": 137.31666759923064,
        "Mean Anomaly(deg)": 222.43948243998386,
        "RAAN(deg)": 24.99094573350888,
        "Satellite Name": "Constellation 1 123",
        "Satellite Number": 123,
        "Semi-Major Axis(m)": 7083131.272910544,
        "Time(s)": 160
    },
    {
        "Altitude(m)": 711217.3695142729,
        "Argument of Periapsis(deg)": 0.009651629005510304,
        "Eccentricity": 0.0,
        "Inclination(deg)": 45.0,
        "Latitude(deg)": -28.716533007892153,
        "Longitude(deg)": 137.36808200246304,
        "Mean Anomaly(deg)": 222.5001835802338,
        "RAAN(deg)": 24.990889144343313,
        "Satellite Name": "Constellation 1 123",
        "Satellite Number": 123,
        "Semi-Major Axis(m)": 7083131.272910544,
        "Time(s)": 161
    },
    {
        "Altitude(m)": 711231.1570897027,
        "Argument of Periapsis(deg)": 0.00971157701175571,
        "Eccentricity": 0.0,
        "Inclination(deg)": 45.0,
        "Latitude(deg)": -28.752616303348354,
        "Longitude(deg)": 137.41953439850084,
        "Mean Anomaly(deg)": 222.56088472048367,
        "RAAN(deg)": 24.990832555177743,
        "Satellite Name": "Constellation 1 123",
        "Satellite Number": 123,
        "Semi-Major Axis(m)": 7083131.272910544,
        "Time(s)": 162
    },
    {
        "Altitude(m)": 711244.942263885,
        "Argument of Periapsis(deg)": 0.009771525018001118,
        "Eccentricity": 0.0,
        "Inclination(deg)": 45.0,
        "Latitude(deg)": -28.788676476874414,
        "Longitude(deg)": 137.47102467804459,
        "Mean Anomaly(deg)": 222.6215858607336,
        "RAAN(deg)": 24.990775966012173,
        "Satellite Name": "Constellation 1 123",
        "Satellite Number": 123,
        "Semi-Major Axis(m)": 7083131.272910544,
        "Time(s)": 163
    },
    {
        "Altitude(m)": 711258.7249887794,
        "Argument of Periapsis(deg)": 0.00983147302424652,
        "Eccentricity": 0.0,
        "Inclination(deg)": 45.0,
        "Latitude(deg)": -28.824713479097156,
        "Longitude(deg)": 137.5225532360485,
        "Mean Anomaly(deg)": 222.68228700098345,
        "RAAN(deg)": 24.990719376846602,
        "Satellite Name": "Constellation 1 123",
        "Satellite Number": 123,
        "Semi-Major Axis(m)": 7083131.272910544,
        "Time(s)": 164
    },
    {
        "Altitude(m)": 711272.5052163452,
        "Argument of Periapsis(deg)": 0.009891421030491928,
        "Eccentricity": 0.0,
        "Inclination(deg)": 45.0,
        "Latitude(deg)": -28.86072726057271,
        "Longitude(deg)": 137.5741199631392,
        "Mean Anomaly(deg)": 222.74298814123338,
        "RAAN(deg)": 24.990662787681035,
        "Satellite Name": "Constellation 1 123",
        "Satellite Number": 123,
        "Semi-Major Axis(m)": 7083131.272910544,
        "Time(s)": 165
    },
    {
        "Altitude(m)": 711286.2828985306,
        "Argument of Periapsis(deg)": 0.009951369036737332,
        "Eccentricity": 0.0,
        "Inclination(deg)": 45.0,
        "Latitude(deg)": -28.89671777178712,
        "Longitude(deg)": 137.62572491800196,
        "Mean Anomaly(deg)": 222.80368928148326,
        "RAAN(deg)": 24.990606198515465,
        "Satellite Name": "Constellation 1 123",
        "Satellite Number": 123,
        "Semi-Major Axis(m)": 7083131.272910544,
        "Time(s)": 166
    },
    {
        "Altitude(m)": 711300.0579872911,
        "Argument of Periapsis(deg)": 0.010011317042982738,
        "Eccentricity": 0.0,
        "Inclination(deg)": 45.0,
        "Latitude(deg)": -28.932684963156305,
        "Longitude(deg)": 137.67736815928404,
        "Mean Anomaly(deg)": 222.86439042173313,
        "RAAN(deg)": 24.990549609349898,
        "Satellite Name": "Constellation 1 123",
        "Satellite Number": 123,
        "Semi-Major Axis(m)": 7083131.272910544,
        "Time(s)": 167
    },
    {
        "Altitude(m)": 711313.8304345795,
        "Argument of Periapsis(deg)": 0.010071265049228144,
        "Eccentricity": 0.0,
        "Inclination(deg)": 45.0,
        "Latitude(deg)": -28.96862878502569,
        "Longitude(deg)": 137.72904974559322,
        "Mean Anomaly(deg)": 222.92509156198307,
        "RAAN(deg)": 24.990493020184324,
        "Satellite Name": "Constellation 1 123",
        "Satellite Number": 123,
        "Semi-Major Axis(m)": 7083131.272910544,
        "Time(s)": 168
    },
    {
        "Altitude(m)": 711327.6001923549,
        "Argument of Periapsis(deg)": 0.01013121305547355,
        "Eccentricity": 0.0,
        "Inclination(deg)": 45.0,
        "Latitude(deg)": -29.00454918767029,
        "Longitude(deg)": 137.78076973549793,
        "Mean Anomaly(deg)": 222.98579270223297,
        "RAAN(deg)": 24.990436431018754,
        "Satellite Name": "Constellation 1 123",
        "Satellite Number": 123,
        "Semi-Major Axis(m)": 7083131.272910544,
        "Time(s)": 169
    },
    {
        "Altitude(m)": 711341.367212557,
        "Argument of Periapsis(deg)": 0.010191161061718957,
        "Eccentricity": 0.0,
        "Inclination(deg)": 45.0,
        "Latitude(deg)": -29.04044612129491,
        "Longitude(deg)": 137.83252818752658,
        "Mean Anomaly(deg)": 223.04649384248285,
        "RAAN(deg)": 24.990379841853187,
        "Satellite Name": "Constellation 1 123",
        "Satellite Number": 123,
        "Semi-Major Axis(m)": 7083131.272910544,
        "Time(s)": 170
    }
]